SCD 1                   
1 22490U 93009B   26115.50207514  .00000409  00000+0  61025-4 0  9997
2 22490  24.9683 172.8692 0041718 300.6769  82.0619 14.46096172753481
TECHSAT 1B (GO-32)      
1 25397U 98043D   26115.94389757  .00000065  00000+0  48241-4 0  9990
2 25397  99.0061 107.3893 0001793  43.5469 316.5850 14.24417684443892
SCD 2                   
1 25504U 98060A   26115.50783343  .00000377  00000+0  54241-4 0  9993
2 25504  24.9964  37.0247 0016523 286.5772 234.5118 14.45505031452697
DLR-TUBSAT              
1 25757U 99029B   26115.93654004  .00000090  00000+0  34015-4 0  9996
2 25757  98.6692 109.7251 0014837 145.2225 214.9942 14.52412629425667
TERRA                   
1 25994U 99068A   26115.89994652  .00000374  00000+0  85265-4 0  9991
2 25994  97.9503 167.5082 0003212  56.7601 355.4269 14.61060188401976
MAROC-TUBSAT            
1 27004U 01056D   26115.95441407 -.00000015  00000+0  36079-4 0  9999
2 27004  99.8060 291.8328 0019040 277.0107 209.5531 13.70260192219039
AQUA                    
1 27424U 02022A   26115.90622179  .00000850  00000+0  17918-3 0  9997
2 27424  98.4243  84.1595 0002029  96.0287 320.5003 14.62073962275634
SHIYAN-1 (SY-1)         
1 28220U 04012A   26115.90173085  .00016112  00000+0  51720-3 0  9997
2 28220  97.8706 190.6294 0005782 190.6927 169.4191 15.32386067203085
AURA                    
1 28376U 04026A   26115.87788475  .00000853  00000+0  18285-3 0  9999
2 28376  98.3381  71.9138 0001690  85.3753 274.7640 14.61245577158574
IRS-P5 (CARTOSAT-1)     
1 28649U 05017A   26115.79825090  .00001155  00000+0  12246-3 0  9996
2 28649  97.5351 141.2346 0001022 130.0083 230.1226 14.90909805136014
SINAH 1                 
1 28893U 05043D   26115.91070303  .00000386  00000+0  82697-4 0  9992
2 28893  98.2779 249.9483 0015715  81.3900 278.9082 14.64120416 92874
RESURS-DK 1             
1 29228U 06021A   26115.74363345  .00002097  00000+0  12463-3 0  9998
2 29228  69.9299 115.2839 0003265 341.1886  18.9158 15.12985142 94648
ARIRANG-2 (KOMPSAT-2)   
1 29268U 06031A   26115.97957309  .00000397  00000+0  83085-4 0  9997
2 29268  97.8317 302.9517 0013112 236.6491 277.4709 14.64625691 53839
LAPAN-TUBSAT            
1 29709U 07001A   26115.93178567  .00000186  00000+0  27953-4 0  9990
2 29709  98.1351 113.9817 0012343   2.6068 357.5209 14.85892521 43396
HAIYANG-1B              
1 31113U 07010A   26115.84432965  .00000113  00000+0  58619-4 0  9990
2 31113  98.3476  99.7272 0013577   2.0453 358.0784 14.31013554993149
COSMO-SKYMED 1          
1 31598U 07023A   26115.93074271  .00003127  00000+0  27805-3 0  9993
2 31598  97.8869 307.3521 0001360 101.5650 258.5724 14.96839578 21976
TERRASAR-X              
1 31698U 07026A   26115.49710051  .00000325  00000+0  18682-4 0  9992
2 31698  97.4450 123.9535 0001649  88.7004 271.4420 15.19153419 45225
