[{"OBJECT_NAME":"SCD 1","OBJECT_ID":"1993-009B","EPOCH":"2026-04-25T12:02:59.292096","MEAN_MOTION":14.46096172,"ECCENTRICITY":0.00417182,"INCLINATION":24.9683,"RA_OF_ASC_NODE":172.8692,"ARG_OF_PERICENTER":300.6769,"MEAN_ANOMALY":82.0619,"EPHEMERIS_TYPE":0,"CLASSIFICATION_TYPE":"U","NORAD_CAT_ID":22490,"ELEMENT_SET_NO":999,"REV_AT_EPOCH":75348,"BSTAR":6.1025388e-5,"MEAN_MOTION_DOT":4.09e-6,"MEAN_MOTION_DDOT":0},{"OBJECT_NAME":"TECHSAT 1B (GO-32)","OBJECT_ID":"1998-043D","EPOCH":"2026-04-25T22:39:12.750048","MEAN_MOTION":14.24417684,"ECCENTRICITY":0.00017933,"INCLINATION":99.0061,"RA_OF_ASC_NODE":107.3893,"ARG_OF_PERICENTER":43.5469,"MEAN_ANOMALY":316.585,"EPHEMERIS_TYPE":0,"CLASSIFICATION_TYPE":"U","NORAD_CAT_ID":25397,"ELEMENT_SET_NO":999,"REV_AT_EPOCH":44389,"BSTAR":4.8241224e-5,"MEAN_MOTION_DOT":6.5e-7,"MEAN_MOTION_DDOT":0},{"OBJECT_NAME":"SCD 2","OBJECT_ID":"1998-060A","EPOCH":"2026-04-25T12:11:16.808352","MEAN_MOTION":14.45505031,"ECCENTRICITY":0.00165238,"INCLINATION":24.9964,"RA_OF_ASC_NODE":37.0247,"ARG_OF_PERICENTER":286.5772,"MEAN_ANOMALY":234.5118,"EPHEMERIS_TYPE":0,"CLASSIFICATION_TYPE":"U","NORAD_CAT_ID":25504,"ELEMENT_SET_NO":999,"REV_AT_EPOCH":45269,"BSTAR":5.4241183e-5,"MEAN_MOTION_DOT":3.77e-6,"MEAN_MOTION_DDOT":0},{"OBJECT_NAME":"DLR-TUBSAT","OBJECT_ID":"1999-029B","EPOCH":"2026-04-25T22:28:37.059456","MEAN_MOTION":14.52412629,"ECCENTRICITY":0.00148373,"INCLINATION":98.6692,"RA_OF_ASC_NODE":109.7251,"ARG_OF_PERICENTER":145.2225,"MEAN_ANOMALY":214.9942,"EPHEMERIS_TYPE":0,"CLASSIFICATION_TYPE":"U","NORAD_CAT_ID":25757,"ELEMENT_SET_NO":999,"REV_AT_EPOCH":42566,"BSTAR":3.4015316e-5,"MEAN_MOTION_DOT":9.0e-7,"MEAN_MOTION_DDOT":0},{"OBJECT_NAME":"TERRA","OBJECT_ID":"1999-068A","EPOCH":"2026-04-25T21:35:55.379328","MEAN_MOTION":14.61060188,"ECCENTRICITY":0.00032127,"INCLINATION":97.9503,"RA_OF_ASC_NODE":167.5082,"ARG_OF_PERICENTER":56.7601,"MEAN_ANOMALY":355.4269,"EPHEMERIS_TYPE":0,"CLASSIFICATION_TYPE":"U","NORAD_CAT_ID":25994,"ELEMENT_SET_NO":999,"REV_AT_EPOCH":40197,"BSTAR":8.5264945e-5,"MEAN_MOTION_DOT":3.74e-6,"MEAN_MOTION_DDOT":0},{"OBJECT_NAME":"MAROC-TUBSAT","OBJECT_ID":"2001-056D","EPOCH":"2026-04-25T22:54:21.375648","MEAN_MOTION":13.70260192,"ECCENTRICITY":0.00190407,"INCLINATION":99.806,"RA_OF_ASC_NODE":291.8328,"ARG_OF_PERICENTER":277.0107,"MEAN_ANOMALY":209.5531,"EPHEMERIS_TYPE":0,"CLASSIFICATION_TYPE":"U","NORAD_CAT_ID":27004,"ELEMENT_SET_NO":999,"REV_AT_EPOCH":21903,"BSTAR":3.6079451e-5,"MEAN_MOTION_DOT":-1.5e-7,"MEAN_MOTION_DDOT":0},{"OBJECT_NAME":"AQUA","OBJECT_ID":"2002-022A","EPOCH":"2026-04-25T21:44:57.562656","MEAN_MOTION":14.62073962,"ECCENTRICITY":0.0002029,"INCLINATION":98.4243,"RA_OF_ASC_NODE":84.1595,"ARG_OF_PERICENTER":96.0287,"MEAN_ANOMALY":320.5003,"EPHEMERIS_TYPE":0,"CLASSIFICATION_TYPE":"U","NORAD_CAT_ID":27424,"ELEMENT_SET_NO":999,"REV_AT_EPOCH":27563,"BSTAR":0.00017917613,"MEAN_MOTION_DOT":8.5e-6,"MEAN_MOTION_DDOT":0},{"OBJECT_NAME":"SHIYAN-1 (SY-1)","OBJECT_ID":"2004-012A","EPOCH":"2026-04-25T21:38:29.545440","MEAN_MOTION":15.32386067,"ECCENTRICITY":0.00057821,"INCLINATION":97.8706,"RA_OF_ASC_NODE":190.6294,"ARG_OF_PERICENTER":190.6927,"MEAN_ANOMALY":169.4191,"EPHEMERIS_TYPE":0,"CLASSIFICATION_TYPE":"U","NORAD_CAT_ID":28220,"ELEMENT_SET_NO":999,"REV_AT_EPOCH":20308,"BSTAR":0.00051720089,"MEAN_MOTION_DOT":0.00016112,"MEAN_MOTION_DDOT":0},{"OBJECT_NAME":"AURA","OBJECT_ID":"2004-026A","EPOCH":"2026-04-25T21:04:09.242400","MEAN_MOTION":14.61245577,"ECCENTRICITY":0.000169,"INCLINATION":98.3381,"RA_OF_ASC_NODE":71.9138,"ARG_OF_PERICENTER":85.3753,"MEAN_ANOMALY":274.764,"EPHEMERIS_TYPE":0,"CLASSIFICATION_TYPE":"U","NORAD_CAT_ID":28376,"ELEMENT_SET_NO":999,"REV_AT_EPOCH":15857,"BSTAR":0.00018284618,"MEAN_MOTION_DOT":8.53e-6,"MEAN_MOTION_DDOT":0},{"OBJECT_NAME":"IRS-P5 (CARTOSAT-1)","OBJECT_ID":"2005-017A","EPOCH":"2026-04-25T19:09:28.877760","MEAN_MOTION":14.90909805,"ECCENTRICITY":0.00010224,"INCLINATION":97.5351,"RA_OF_ASC_NODE":141.2346,"ARG_OF_PERICENTER":130.0083,"MEAN_ANOMALY":230.1226,"EPHEMERIS_TYPE":0,"CLASSIFICATION_TYPE":"U","NORAD_CAT_ID":28649,"ELEMENT_SET_NO":999,"REV_AT_EPOCH":13601,"BSTAR":0.00012245507,"MEAN_MOTION_DOT":1.155e-5,"MEAN_MOTION_DDOT":0},{"OBJECT_NAME":"SINAH 1","OBJECT_ID":"2005-043D","EPOCH":"2026-04-25T21:51:24.741792","MEAN_MOTION":14.64120416,"ECCENTRICITY":0.00157153,"INCLINATION":98.2779,"RA_OF_ASC_NODE":249.9483,"ARG_OF_PERICENTER":81.39,"MEAN_ANOMALY":278.9082,"EPHEMERIS_TYPE":0,"CLASSIFICATION_TYPE":"U","NORAD_CAT_ID":28893,"ELEMENT_SET_NO":999,"REV_AT_EPOCH":9287,"BSTAR":8.2697198e-5,"MEAN_MOTION_DOT":3.86e-6,"MEAN_MOTION_DDOT":0},{"OBJECT_NAME":"RESURS-DK 1","OBJECT_ID":"2006-021A","EPOCH":"2026-04-25T17:50:49.930080","MEAN_MOTION":15.12985142,"ECCENTRICITY":0.00032657,"INCLINATION":69.9299,"RA_OF_ASC_NODE":115.2839,"ARG_OF_PERICENTER":341.1886,"MEAN_ANOMALY":18.9158,"EPHEMERIS_TYPE":0,"CLASSIFICATION_TYPE":"U","NORAD_CAT_ID":29228,"ELEMENT_SET_NO":999,"REV_AT_EPOCH":9464,"BSTAR":0.00012463399,"MEAN_MOTION_DOT":2.097e-5,"MEAN_MOTION_DDOT":0},{"OBJECT_NAME":"ARIRANG-2 (KOMPSAT-2)","OBJECT_ID":"2006-031A","EPOCH":"2026-04-25T23:30:35.114976","MEAN_MOTION":14.64625691,"ECCENTRICITY":0.00131123,"INCLINATION":97.8317,"RA_OF_ASC_NODE":302.9517,"ARG_OF_PERICENTER":236.6491,"MEAN_ANOMALY":277.4709,"EPHEMERIS_TYPE":0,"CLASSIFICATION_TYPE":"U","NORAD_CAT_ID":29268,"ELEMENT_SET_NO":999,"REV_AT_EPOCH":5383,"BSTAR":8.3085304e-5,"MEAN_MOTION_DOT":3.97e-6,"MEAN_MOTION_DDOT":0},{"OBJECT_NAME":"LAPAN-TUBSAT","OBJECT_ID":"2007-001A","EPOCH":"2026-04-25T22:21:46.281888","MEAN_MOTION":14.85892521,"ECCENTRICITY":0.00123435,"INCLINATION":98.1351,"RA_OF_ASC_NODE":113.9817,"ARG_OF_PERICENTER":2.6068,"MEAN_ANOMALY":357.5209,"EPHEMERIS_TYPE":0,"CLASSIFICATION_TYPE":"U","NORAD_CAT_ID":29709,"ELEMENT_SET_NO":999,"REV_AT_EPOCH":4339,"BSTAR":2.795277e-5,"MEAN_MOTION_DOT":1.86e-6,"MEAN_MOTION_DDOT":0},{"OBJECT_NAME":"HAIYANG-1B","OBJECT_ID":"2007-010A","EPOCH":"2026-04-25T20:15:50.081760","MEAN_MOTION":14.31013554,"ECCENTRICITY":0.00135775,"INCLINATION":98.3476,"RA_OF_ASC_NODE":99.7272,"ARG_OF_PERICENTER":2.0453,"MEAN_ANOMALY":358.0784,"EPHEMERIS_TYPE":0,"CLASSIFICATION_TYPE":"U","NORAD_CAT_ID":31113,"ELEMENT_SET_NO":999,"REV_AT_EPOCH":99314,"BSTAR":5.8619088e-5,"MEAN_MOTION_DOT":1.13e-6,"MEAN_MOTION_DDOT":0},{"OBJECT_NAME":"COSMO-SKYMED 1","OBJECT_ID":"2007-023A","EPOCH":"2026-04-25T22:20:16.170144","MEAN_MOTION":14.96839578,"ECCENTRICITY":0.000136,"INCLINATION":97.8869,"RA_OF_ASC_NODE":307.3521,"ARG_OF_PERICENTER":101.565,"MEAN_ANOMALY":258.5724,"EPHEMERIS_TYPE":0,"CLASSIFICATION_TYPE":"U","NORAD_CAT_ID":31598,"ELEMENT_SET_NO":999,"REV_AT_EPOCH":2197,"BSTAR":0.00027804807,"MEAN_MOTION_DOT":3.127e-5,"MEAN_MOTION_DDOT":0},{"OBJECT_NAME":"TERRASAR-X","OBJECT_ID":"2007-026A","EPOCH":"2026-04-25T11:55:49.484064","MEAN_MOTION":15.19153419,"ECCENTRICITY":0.00016493,"INCLINATION":97.445,"RA_OF_ASC_NODE":123.9535,"ARG_OF_PERICENTER":88.7004,"MEAN_ANOMALY":271.442,"EPHEMERIS_TYPE":0,"CLASSIFICATION_TYPE":"U","NORAD_CAT_ID":31698,"ELEMENT_SET_NO":999,"REV_AT_EPOCH":4522,"BSTAR":1.868217e-5,"MEAN_MOTION_DOT":3.25e-6,"MEAN_MOTION_DDOT":0}]
